NORAD_CAT_ID,OBJECT_NAME,OBJECT_TYPE,EPOCH,MEAN_MOTION,ECCENTRICITY,INCLINATION,RA_OF_ASC_NODE,ARG_OF_PERICENTER,MEAN_ANOMALY,BSTAR,MEAN_MOTION_DOT,MEAN_MOTION_DDOT,TLE_LINE0,TLE_LINE1,TLE_LINE2,SEMIMAJOR_AXIS,PERIOD,APOGEE,PERIGEE,DECAYED
52451.0,STARLINK-3870,PAYLOAD,2023-02-04 14:00:28,15.08855055,0.0001252,53.2168,97.8772,89.9883,270.1252,0.00044845,6.859e-05,0.0,0 STARLINK-3870,1 52451U 22049A   23035.58366081  .00006859  00000-0  44845-3 0  9990,2 52451  53.2168  97.8772 0001252  89.9883 270.1252 15.08855055 41814,6917.834,95.437,540.565,538.833,0.0
52451.0,STARLINK-3870,PAYLOAD,2023-02-05 04:18:57,15.08836089,0.0001162,53.2167,95.2009,93.7398,266.3727,7.6871e-05,9.36e-06,0.0,0 STARLINK-3870,1 52451U 22049A   23036.17982904  .00000936  00000-0  76871-4 0  9999,2 52451  53.2167  95.2009 0001162  93.7398 266.3727 15.08836089 41902,6917.892,95.438,540.561,538.953,0.0
52451.0,STARLINK-3870,PAYLOAD,2023-02-05 12:15:52,15.0884878,0.0001239,53.2171,93.7151,96.6257,263.4876,0.000354,5.352e-05,0.0,0 STARLINK-3870,1 52451U 22049A   23036.51102531  .00005352  00000-0  35400-3 0  9996,2 52451  53.2171  93.7151 0001239  96.6257 263.4876 15.08848780 41958,6917.854,95.437,540.576,538.861,0.0
52451.0,STARLINK-3870,PAYLOAD,2023-02-05 20:12:47,15.08835852,8.22e-05,53.2178,92.2305,175.6577,184.4423,1.0963e-05,-1.13e-06,0.0,0 STARLINK-3870,1 52451U 22049A   23036.84222118 -.00000113  00000-0  10963-4 0  9995,2 52451  53.2178  92.2305 0000822 175.6577 184.4423 15.08835852 41844,6917.893,95.438,540.327,539.189,0.0
52451.0,STARLINK-3870,PAYLOAD,2023-02-06 10:31:16,15.08861181,0.0001203,53.2171,89.5526,103.7558,256.3568,0.0017203,0.00027213,0.0,0 STARLINK-3870,1 52451U 22049A   23037.43838547  .00027213  00000-0  17203-2 0  9991,2 52451  53.2171  89.5526 0001203 103.7558 256.3568 15.08861181 42097,6917.816,95.436,540.513,538.848,0.0
52451.0,STARLINK-3870,PAYLOAD,2023-02-06 12:06:39,15.08864292,0.0001152,53.2168,89.255,101.1466,258.9655,0.0018344,0.00029047,0.0,0 STARLINK-3870,1 52451U 22049A   23037.50462462  .00029047  00000-0  18344-2 0  9992,2 52451  53.2168  89.2550 0001152 101.1466 258.9655 15.08864292 41944,6917.806,95.436,540.468,538.874,0.0
52451.0,STARLINK-3870,PAYLOAD,2023-02-06 20:03:35,15.08851161,0.0001101,53.2174,87.7685,91.9299,268.1819,0.0008057,0.00012562,0.0,0 STARLINK-3870,1 52451U 22049A   23037.83582465  .00012562  00000-0  80570-3 0  9999,2 52451  53.2174  87.7685 0001101  91.9299 268.1819 15.08851161 42157,6917.846,95.437,540.473,538.95,0.0
52451.0,STARLINK-3870,PAYLOAD,2023-02-07 10:22:03,15.08851501,0.0001457,53.2162,85.0907,79.952,280.1637,0.000424,6.469e-05,0.0,0 STARLINK-3870,1 52451U 22049A   23038.43198283  .00006469  00000-0  42400-3 0  9996,2 52451  53.2162  85.0907 0001457  79.9520 280.1637 15.08851501 42081,6917.845,95.437,540.718,538.702,0.0
52451.0,STARLINK-3870,PAYLOAD,2023-02-07 13:32:49,15.08864788,0.0001295,53.2162,84.4964,79.9942,280.1196,0.00086902,0.00013579,0.0,0 STARLINK-3870,1 52451U 22049A   23038.56445901  .00013579  00000-0  86902-3 0  9997,2 52451  53.2162  84.4964 0001295  79.9942 280.1196 15.08864788 42109,6917.805,95.436,540.565,538.774,0.0
52451.0,STARLINK-3870,PAYLOAD,2023-02-08 07:02:04,15.08847101,0.0001478,53.216,81.2251,87.5762,272.5399,0.00067828,0.00010525,0.0,0 STARLINK-3870,1 52451U 22049A   23039.29310617  .00010525  00000-0  67828-3 0  9997,2 52451  53.2160  81.2251 0001478  87.5762 272.5399 15.08847101 42378,6917.859,95.437,540.746,538.701,0.0
52451.0,STARLINK-3870,PAYLOAD,2023-02-08 10:12:50,15.08845261,0.0001585,53.2158,80.6306,87.1076,273.0098,0.0014121,0.0002226,0.0,0 STARLINK-3870,1 52451U 22049A   23039.42558743  .00022260  00000-0  14121-2 0  9992,2 52451  53.2158  80.6306 0001585  87.1076 273.0098 15.08845261 42234,6917.864,95.437,540.826,538.633,0.0
52451.0,STARLINK-3870,PAYLOAD,2023-02-08 21:20:33,15.08830343,0.0001572,53.2158,78.5486,97.9299,262.1872,0.00047347,7.253e-05,0.0,0 STARLINK-3870,1 52451U 22049A   23039.88927111  .00007253  00000-0  47347-3 0  9993,2 52451  53.2158  78.5486 0001572  97.9299 262.1872 15.08830343 42303,6917.91,95.438,540.862,538.687,0.0
52451.0,STARLINK-3870,PAYLOAD,2023-02-09 06:52:52,15.08847621,0.0001613,53.2158,76.7652,79.6349,280.4825,0.0019822,0.00031406,0.0,0 STARLINK-3870,1 52451U 22049A   23040.28671325  .00031406  00000-0  19822-2 0  9995,2 52451  53.2158  76.7652 0001613  79.6349 280.4825 15.08847621 42529,6917.857,95.437,540.838,538.606,0.0
52451.0,STARLINK-3870,PAYLOAD,2023-02-09 10:03:38,15.08855347,0.0001548,53.2159,76.1698,81.5681,278.5487,0.0023965,0.00038075,0.0,0 STARLINK-3870,1 52451U 22049A   23040.41919200  .00038075  00000-0  23965-2 0  9999,2 52451  53.2159  76.1698 0001548  81.5681 278.5487 15.08855347 42382,6917.833,95.437,540.769,538.628,0.0
52451.0,STARLINK-3870,PAYLOAD,2023-02-09 14:49:47,15.08861805,0.0001658,53.2152,75.2758,91.148,268.9702,0.001975,0.00031303,0.0,0 STARLINK-3870,1 52451U 22049A   23040.61790985  .00031303  00000-0  19750-2 0  9992,2 52451  53.2152  75.2758 0001658  91.1480 268.9702 15.08861805 42411,6917.814,95.436,540.826,538.532,0.0
52451.0,STARLINK-3870,PAYLOAD,2023-02-10 01:57:30,15.08838718,0.0001694,53.2163,73.1946,83.8965,276.222,0.0011889,0.00018683,0.0,0 STARLINK-3870,1 52451U 22049A   23041.08159783  .00018683  00000-0  11889-2 0  9990,2 52451  53.2163  73.1946 0001694  83.8965 276.2220 15.08838718 42486,6917.884,95.438,540.921,538.577,0.0
52451.0,STARLINK-3870,PAYLOAD,2023-02-10 13:05:11,15.08871115,0.0001727,53.2159,71.1142,73.6894,286.4288,0.0026681,0.00042467,0.0,0 STARLINK-3870,1 52451U 22049A   23041.54527336  .00042467  00000-0  26681-2 0  9997,2 52451  53.2159  71.1142 0001727  73.6894 286.4288 15.08871115 42713,6917.785,95.436,540.845,538.456,0.0
52451.0,STARLINK-3870,PAYLOAD,2023-02-10 19:26:44,15.08851127,0.0001605,53.2178,69.9226,89.1795,270.9381,0.00095473,0.00014944,0.0,0 STARLINK-3870,1 52451U 22049A   23041.81023409  .00014944  00000-0  95473-3 0  9994,2 52451  53.2178  69.9226 0001605  89.1795 270.9381 15.08851127 42756,6917.846,95.437,540.822,538.601,0.0
52451.0,STARLINK-3870,PAYLOAD,2023-02-11 12:55:58,15.08866664,0.0001753,53.2174,66.6503,93.3089,266.8104,0.0016539,0.00026151,0.0,0 STARLINK-3870,1 52451U 22049A   23042.53887008  .00026151  00000-0  16539-2 0  9995,2 52451  53.2174  66.6503 0001753  93.3089 266.8104 15.08866664 42862,6917.799,95.436,540.877,538.451,0.0
52451.0,STARLINK-3870,PAYLOAD,2023-02-12 08:00:36,15.08851147,0.0001713,53.2166,63.0857,98.0665,262.0522,0.0019743,0.00031283,0.0,0 STARLINK-3870,1 52451U 22049A   23043.33375618  .00031283  00000-0  19743-2 0  9995,2 52451  53.2166  63.0857 0001713  98.0665 262.0522 15.08851147 42989,6917.846,95.437,540.896,538.526,0.0
52451.0,STARLINK-3870,PAYLOAD,2023-02-12 12:46:45,15.08851114,0.0001836,53.218,62.191,94.6635,265.4567,0.0013822,0.00021785,0.0,0 STARLINK-3870,1 52451U 22049A   23043.53247509  .00021785  00000-0  13822-2 0  9992,2 52451  53.2180  62.1910 0001836  94.6635 265.4567 15.08851114 42856,6917.846,95.437,540.982,538.441,0.0
52451.0,STARLINK-3870,PAYLOAD,2023-02-13 01:29:51,15.08834865,0.0002031,53.2184,59.8116,105.937,254.1846,0.0015571,0.00024577,0.0,0 STARLINK-3870,1 52451U 22049A   23044.06240013  .00024577  00000-0  15571-2 0  9999,2 52451  53.2184  59.8116 0002031 105.9370 254.1846 15.08834865 43097,6917.896,95.438,541.166,538.356,0.0
52451.0,STARLINK-3870,PAYLOAD,2023-02-13 12:37:33,15.08859742,0.0001681,53.2177,57.7334,88.9541,271.1643,0.0015968,0.0002523,0.0,0 STARLINK-3870,1 52451U 22049A   23044.52607745  .00025230  00000-0  15968-2 0  9996,2 52451  53.2177  57.7334 0001681  88.9541 271.1643 15.08859742 43004,6917.82,95.436,540.848,538.522,0.0
52451.0,STARLINK-3870,PAYLOAD,2023-02-13 17:23:43,15.08826113,0.0003336,53.2176,56.8367,88.9893,271.1482,0.00076454,0.00011896,0.0,0 STARLINK-3870,1 52451U 22049A   23044.72480710  .00011896  00000-0  76454-3 0  9990,2 52451  53.2176  56.8367 0003336  88.9893 271.1482 15.08826113 43195,6917.923,95.438,542.096,537.48,0.0
52451.0,STARLINK-3870,PAYLOAD,2023-02-14 01:20:38,15.08845164,0.0001424,53.2185,55.3541,106.3803,253.7345,0.0012099,0.00019023,0.0,0 STARLINK-3870,1 52451U 22049A   23045.05600107  .00019023  00000-0  12099-2 0  9995,2 52451  53.2185  55.3541 0001424 106.3803 253.7345 15.08845164 43242,6917.865,95.437,540.715,538.745,0.0
52451.0,STARLINK-3870,PAYLOAD,2023-02-14 10:52:57,15.08865321,0.0001344,53.2183,53.5705,97.2883,262.8262,0.0021913,0.00034783,0.0,0 STARLINK-3870,1 52451U 22049A   23045.45343826  .00034783  00000-0  21913-2 0  9996,2 52451  53.2183  53.5705 0001344  97.2883 262.8262 15.08865321 43144,6917.803,95.436,540.598,538.738,0.0
52451.0,STARLINK-3870,PAYLOAD,2023-02-14 17:14:29,15.08843764,0.0002088,53.2202,52.38,77.5547,282.5679,0.00055582,8.57e-05,0.0,0 STARLINK-3870,1 52451U 22049A   23045.71840211  .00008570  00000-0  55582-3 0  9990,2 52451  53.2202  52.3800 0002088  77.5547 282.5679 15.08843764 43343,6917.869,95.437,541.178,538.289,0.0
52451.0,STARLINK-3870,PAYLOAD,2023-02-15 07:32:58,15.08842228,0.0002017,53.2184,49.7055,81.2836,278.8384,0.00044695,6.833e-05,0.0,0 STARLINK-3870,1 52451U 22049A   23046.31456252  .00006833  00000-0  44695-3 0  9998,2 52451  53.2184  49.7055 0002017  81.2836 278.8384 15.08842228 43434,6917.874,95.437,541.134,538.343,0.0
52451.0,STARLINK-3870,PAYLOAD,2023-02-15 12:19:07,15.08866645,0.0001442,53.2173,48.8122,78.396,281.7194,0.001205,0.00018956,0.0,0 STARLINK-3870,1 52451U 22049A   23046.51327698  .00018956  00000-0  12050-2 0  9999,2 52451  53.2173  48.8122 0001442  78.3960 281.7194 15.08866645 43467,6917.799,95.436,540.661,538.666,0.0
52451.0,STARLINK-3870,PAYLOAD,2023-02-15 17:05:16,15.08845419,0.0001116,53.2179,47.9201,99.2877,260.8242,0.00047195,7.232e-05,0.0,0 STARLINK-3870,1 52451U 22049A   23046.71199987  .00007232  00000-0  47195-3 0  9993,2 52451  53.2179  47.9201 0001116  99.2877 260.8242 15.08845419 43499,6917.864,95.437,540.501,538.957,0.0
